NORAD_CAT_ID,OBJECT_NAME,OBJECT_TYPE,EPOCH,MEAN_MOTION,ECCENTRICITY,INCLINATION,RA_OF_ASC_NODE,ARG_OF_PERICENTER,MEAN_ANOMALY,BSTAR,MEAN_MOTION_DOT,MEAN_MOTION_DDOT,TLE_LINE0,TLE_LINE1,TLE_LINE2,SEMIMAJOR_AXIS,PERIOD,APOGEE,PERIGEE,DECAYED
53825.0,STARLINK-4751,PAYLOAD,2024-05-21 22:44:34,15.08847811,0.0001399,53.2166,12.4916,91.4707,268.6445,0.00041791,6.371e-05,0.0,0 STARLINK-4751,1 53825U 22114H   24142.94762054  .00006371  00000-0  41791-3 0  9995,2 53825  53.2166  12.4916 0001399  91.4707 268.6445 15.08847811 93685,6917.857,95.437,540.689,538.754,0.0
53825.0,STARLINK-4751,PAYLOAD,2024-05-22 00:19:57,15.08848936,0.0001343,53.2163,12.1951,91.5563,268.5583,0.00035039,5.294e-05,0.0,0 STARLINK-4751,1 53825U 22114H   24143.01385935  .00005294  00000-0  35039-3 0  9994,2 53825  53.2163  12.1951 0001343  91.5563 268.5583 15.08848936 93151,6917.853,95.437,540.647,538.789,0.0
53825.0,STARLINK-4751,PAYLOAD,2024-05-22 20:59:58,15.08835151,0.0001496,53.2175,8.3296,95.4976,264.6187,-1.9829e-05,-6.03e-06,0.0,0 STARLINK-4751,1 53825U 22114H   24143.87498456 -.00000603  00000-0 -19829-4 0  9992,2 53825  53.2175   8.3296 0001496  95.4976 264.6187 15.08835151 93289,6917.895,95.438,540.795,538.725,0.0
53825.0,STARLINK-4751,PAYLOAD,2024-05-22 22:35:21,15.0883494,0.0001467,53.2174,8.032,93.2075,266.9085,7.2717e-06,-1.72e-06,0.0,0 STARLINK-4751,1 53825U 22114H   24143.94122553 -.00000172  00000-0  72717-5 0  9998,2 53825  53.2174   8.0320 0001467  93.2075 266.9085 15.08834940 93835,6917.896,95.438,540.776,538.746,0.0
53825.0,STARLINK-4751,PAYLOAD,2024-05-23 20:50:45,15.08845882,0.0001469,53.2176,3.8666,91.2924,268.8236,0.00018758,2.699e-05,0.0,0 STARLINK-4751,1 53825U 22114H   24144.86858185  .00002699  00000-0  18758-3 0  9995,2 53825  53.2176   3.8666 0001469  91.2924 268.8236 15.08845882 93438,6917.862,95.437,540.744,538.711,0.0
53825.0,STARLINK-4751,PAYLOAD,2024-05-24 14:19:59,15.08850545,0.0001338,53.2175,0.6003,88.6978,271.4167,0.00025736,3.811e-05,0.0,0 STARLINK-4751,1 53825U 22114H   24145.59721789  .00003811  00000-0  25736-3 0  9996,2 53825  53.2175   0.6003 0001338  88.6978 271.4167 15.08850545 94088,6917.848,95.437,540.639,538.788,0.0
53825.0,STARLINK-4751,PAYLOAD,2024-05-24 19:06:09,15.08847121,0.0001349,53.218,359.7023,90.9479,269.1668,0.0001925,2.778e-05,0.0,0 STARLINK-4751,1 53825U 22114H   24145.79593913  .00002778  00000-0  19250-3 0  9999,2 53825  53.2180 359.7023 0001349  90.9479 269.1668 15.08847121 94118,6917.859,95.437,540.657,538.79,0.0
53825.0,STARLINK-4751,PAYLOAD,2024-05-24 23:52:18,15.0884437,0.000131,53.218,358.8124,91.8801,268.2341,0.00013216,1.816e-05,0.0,0 STARLINK-4751,1 53825U 22114H   24145.99466002  .00001816  00000-0  13216-3 0  9997,2 53825  53.2180 358.8124 0001310  91.8801 268.2341 15.08844370 93601,6917.867,95.437,540.638,538.826,0.0
53825.0,STARLINK-4751,PAYLOAD,2024-05-25 07:49:14,15.08846024,0.0001265,53.2179,357.3258,103.4326,256.6807,0.00013003,1.782e-05,0.0,0 STARLINK-4751,1 53825U 22114H   24146.32585734  .00001782  00000-0  13003-3 0  9995,2 53825  53.2179 357.3258 0001265 103.4326 256.6807 15.08846024 94193,6917.862,95.437,540.602,538.852,0.0
53825.0,STARLINK-4751,PAYLOAD,2024-05-25 20:32:19,15.08832731,0.0001212,53.2177,354.948,92.2977,267.8154,-0.00011441,-2.108e-05,0.0,0 STARLINK-4751,1 53825U 22114H   24146.85578645 -.00002108  00000-0 -11441-3 0  9995,2 53825  53.2177 354.9480 0001212  92.2977 267.8154 15.08832731 93738,6917.903,95.438,540.606,538.929,0.0
53825.0,STARLINK-4751,PAYLOAD,2024-05-25 23:43:06,15.08832155,0.0001375,53.2184,354.3542,89.3079,270.8071,-0.00011547,-2.125e-05,0.0,0 STARLINK-4751,1 53825U 22114H   24146.98826776 -.00002125  00000-0 -11547-3 0  9996,2 53825  53.2184 354.3542 0001375  89.3079 270.8071 15.08832155 94293,6917.904,95.438,540.721,538.818,0.0
53825.0,STARLINK-4751,PAYLOAD,2024-05-26 20:23:13,15.08698425,0.0001302,53.2183,350.5006,17.691,342.4127,-0.0019227,-0.00030639,0.0,0 STARLINK-4751,1 53825U 22114H   24147.84945634 -.00030639  00000-0 -19227-2 0  9990,2 53825  53.2183 350.5006 0001302  17.6910 342.4127 15.08698425 93885,6918.313,95.447,541.079,539.277,0.0
53825.0,STARLINK-4751,PAYLOAD,2024-05-27 02:44:38,15.08869159,0.0001148,53.2175,349.2991,83.8165,276.2958,0.00053191,8.194e-05,0.0,0 STARLINK-4751,1 53825U 22114H   24148.11433014  .00008194  00000-0  53191-3 0  9993,2 53825  53.2175 349.2991 0001148  83.8165 276.2958 15.08869159 93924,6917.791,95.436,540.45,538.862,0.0
53825.0,STARLINK-4751,PAYLOAD,2024-05-27 13:52:22,15.08820504,0.0001016,53.2177,347.2172,102.0891,258.0215,0.00011866,1.6e-05,0.0,0 STARLINK-4751,1 53825U 22114H   24148.57803548  .00001600  00000-0  11866-3 0  9994,2 53825  53.2177 347.2172 0001016 102.0891 258.0215 15.08820504 93991,6917.94,95.439,540.508,539.102,0.0
53825.0,STARLINK-4751,PAYLOAD,2024-05-27 18:38:30,15.08836053,0.0001179,53.217,346.3256,109.0746,251.0374,0.00012664,1.728e-05,0.0,0 STARLINK-4751,1 53825U 22114H   24148.77674741  .00001728  00000-0  12664-3 0  9995,2 53825  53.2170 346.3256 0001179 109.0746 251.0374 15.08836053 94023,6917.892,95.438,540.573,538.942,0.0
53825.0,STARLINK-4751,PAYLOAD,2024-05-28 05:46:12,15.08839877,0.000105,53.2167,344.2447,96.2379,263.8733,0.00010409,1.369e-05,0.0,0 STARLINK-4751,1 53825U 22114H   24149.24042646  .00001369  00000-0  10409-3 0  9997,2 53825  53.2167 344.2447 0001050  96.2379 263.8733 15.08839877 94639,6917.881,95.438,540.472,539.019,0.0
53825.0,STARLINK-4751,PAYLOAD,2024-05-28 18:29:17,15.08842721,0.0001089,53.217,341.8653,104.6897,255.4215,6.329e-06,-1.87e-06,0.0,0 STARLINK-4751,1 53825U 22114H   24149.77034413 -.00000187  00000-0  63290-5 0  9994,2 53825  53.2170 341.8653 0001089 104.6897 255.4215 15.08842721 94719,6917.872,95.437,540.49,538.984,0.0
53825.0,STARLINK-4751,PAYLOAD,2024-05-29 11:58:32,15.08834764,9.29e-05,53.2162,338.5936,112.8566,247.2524,0.00019128,2.757e-05,0.0,0 STARLINK-4751,1 53825U 22114H   24150.49898903  .00002757  00000-0  19128-3 0  9990,2 53825  53.2162 338.5936 0000929 112.8566 247.2524 15.08834764 94285,6917.896,95.438,540.404,539.119,0.0
53825.0,STARLINK-4751,PAYLOAD,2024-05-29 21:30:51,15.08840296,0.0001029,53.2174,336.8088,104.7446,255.366,0.00011326,1.515e-05,0.0,0 STARLINK-4751,1 53825U 22114H   24150.89642902  .00001515  00000-0  11326-3 0  9993,2 53825  53.2174 336.8088 0001029 104.7446 255.3660 15.08840296 94880,6917.879,95.438,540.456,539.033,0.0
53825.0,STARLINK-4751,PAYLOAD,2024-05-30 11:49:19,15.0883927,0.0001092,53.2181,334.1331,100.6531,259.4584,0.00011149,1.487e-05,0.0,0 STARLINK-4751,1 53825U 22114H   24151.49259116  .00001487  00000-0  11149-3 0  9992,2 53825  53.2181 334.1331 0001092 100.6531 259.4584 15.08839270 94970,6917.883,95.438,540.503,538.992,0.0
53825.0,STARLINK-4751,PAYLOAD,2024-05-30 19:46:15,15.08844909,0.0001087,53.218,332.6466,99.5197,260.5918,0.00014762,2.063e-05,0.0,0 STARLINK-4751,1 53825U 22114H   24151.82378695  .00002063  00000-0  14762-3 0  9998,2 53825  53.2180 332.6466 0001087  99.5197 260.5918 15.08844909 94484,6917.865,95.437,540.482,538.978,0.0
53825.0,STARLINK-4751,PAYLOAD,2024-05-31 18:01:39,15.08844064,0.0001171,53.2176,328.4824,95.7423,264.3702,0.00012811,1.752e-05,0.0,0 STARLINK-4751,1 53825U 22114H   24152.75114645  .00001752  00000-0  12811-3 0  9991,2 53825  53.2176 328.4824 0001171  95.7423 264.3702 15.08844064 95165,6917.868,95.437,540.543,538.923,0.0
53825.0,STARLINK-4751,PAYLOAD,2024-06-01 05:09:20,15.08851495,0.0001121,53.2175,326.4037,83.7464,276.3656,0.00013589,1.876e-05,0.0,0 STARLINK-4751,1 53825U 22114H   24153.21481950  .00001876  00000-0  13589-3 0  9999,2 53825  53.2175 326.4037 0001121  83.7464 276.3656 15.08851495 94699,6917.845,95.437,540.486,538.935,0.0
53825.0,STARLINK-4751,PAYLOAD,2024-06-01 14:41:40,15.08832293,0.0001226,53.2167,324.6164,98.0862,262.027,4.353e-05,4.05e-06,0.0,0 STARLINK-4751,1 53825U 22114H   24153.61227504  .00000405  00000-0  43530-4 0  9993,2 53825  53.2167 324.6164 0001226  98.0862 262.0270 15.08832293 95294,6917.904,95.438,540.617,538.921,0.0
53825.0,STARLINK-4751,PAYLOAD,2024-06-01 17:52:26,15.08834978,0.0001315,53.2169,324.0235,92.3298,267.7845,3.8767e-05,3.29e-06,0.0,0 STARLINK-4751,1 53825U 22114H   24153.74475282  .00000329  00000-0  38767-4 0  9996,2 53825  53.2169 324.0235 0001315  92.3298 267.7845 15.08834978 94772,6917.896,95.438,540.67,538.851,0.0
53825.0,STARLINK-4751,PAYLOAD,2024-06-02 11:21:41,15.08838786,0.0001282,53.2181,320.7514,94.9954,265.1184,0.00013618,1.88e-05,0.0,0 STARLINK-4751,1 53825U 22114H   24154.47339131  .00001880  00000-0  13618-3 0  9999,2 53825  53.2181 320.7514 0001282  94.9954 265.1184 15.08838786 95421,6917.884,95.438,540.636,538.862,0.0
53825.0,STARLINK-4751,PAYLOAD,2024-06-03 17:34:00,15.08845302,0.0001362,53.2174,315.1016,93.4235,266.6913,0.00028014,4.174e-05,0.0,0 STARLINK-4751,1 53825U 22114H   24155.73195059  .00004174  00000-0  28014-3 0  9993,2 53825  53.2174 315.1016 0001362  93.4235 266.6913 15.08845302 95072,6917.864,95.437,540.671,538.787,0.0
53825.0,STARLINK-4751,PAYLOAD,2024-06-03 20:44:46,15.08845793,0.0001276,53.2172,314.5066,90.3466,269.7672,0.00024451,3.606e-05,0.0,0 STARLINK-4751,1 53825U 22114H   24155.86443011  .00003606  00000-0  24451-3 0  9991,2 53825  53.2172 314.5066 0001276  90.3466 269.7672 15.08845793 95636,6917.863,95.437,540.61,538.845,0.0
53825.0,STARLINK-4751,PAYLOAD,2024-06-04 03:06:18,15.08861442,0.0001008,53.2176,313.3193,95.1982,264.9125,0.00042315,6.457e-05,0.0,0 STARLINK-4751,1 53825U 22114H   24156.12938223  .00006457  00000-0  42315-3 0  9991,2 53825  53.2176 313.3193 0001008  95.1982 264.9125 15.08861442 95131,6917.815,95.436,540.377,538.983,0.0
53825.0,STARLINK-4751,PAYLOAD,2024-06-04 09:27:51,15.08861085,0.0002822,53.2161,312.13,83.7984,276.333,0.00039769,6.05e-05,0.0,0 STARLINK-4751,1 53825U 22114H   24156.39434368  .00006050  00000-0  39769-3 0  9999,2 53825  53.2161 312.1300 0002822  83.7984 276.3330 15.08861085 95714,6917.816,95.436,541.633,537.729,0.0
